{
  "type": "FeatureCollection",
  "features": [
    {
      "type": "Feature",
      "properties": {
        "norad_id": 28054,
        "name": "DMSP 5D-3 F16 (USA 172)",
        "group": "weather",
        "lat": -17.250348931706764,
        "lon": -179.92183984928482,
        "alt_km": 852.0097449616151,
        "timestamp": "2025-12-11T10:53:15.525887+00:00",
        "meta_object_name": "DMSP 5D-3 F16 (USA 172)",
        "meta_object_id": "2003-048A",
        "meta_epoch": "2025-12-11T05:15:15.086304",
        "meta_mean_motion": 14.14423327,
        "meta_eccentricity": 0.0006551,
        "meta_inclination": 99.0048,
        "meta_ra_of_asc_node": 2.6639,
        "meta_arg_of_pericenter": 325.6458,
        "meta_mean_anomaly": 117.2216,
        "meta_ephemeris_type": 0,
        "meta_classification_type": "U",
        "meta_norad_cat_id": 28054,
        "meta_element_set_no": 999,
        "meta_rev_at_epoch": 14291,
        "meta_bstar": 0.00012643,
        "meta_mean_motion_dot": 1.97e-06,
        "meta_mean_motion_ddot": 0,
        "tle_line1": "1 28054U 03048A   25345.21892461  .00000197  00000+0  12643-3 0  9991",
        "tle_line2": "2 28054  99.0048   2.6639 0006551 325.6458 117.2216 14.14423327142915"
      },
      "geometry": {
        "type": "Point",
        "coordinates": [
          -179.92183984928482,
          -17.250348931706764
        ]
      }
    },
    {
      "type": "Feature",
      "properties": {
        "norad_id": 28912,
        "name": "METEOSAT-9 (MSG-2)",
        "group": "weather",
        "lat": -7.182118491104449,
        "lon": -70.91564039817607,
        "alt_km": 35774.47285665803,
        "timestamp": "2025-12-11T10:53:15.525939+00:00",
        "meta_object_name": "METEOSAT-9 (MSG-2)",
        "meta_object_id": "2005-049B",
        "meta_epoch": "2025-12-10T20:37:31.694304",
        "meta_mean_motion": 1.00275463,
        "meta_eccentricity": 0.0003704,
        "meta_inclination": 8.9357,
        "meta_ra_of_asc_node": 55.9949,
        "meta_arg_of_pericenter": 190.2808,
        "meta_mean_anomaly": 188.5842,
        "meta_ephemeris_type": 0,
        "meta_classification_type": "U",
        "meta_norad_cat_id": 28912,
        "meta_element_set_no": 999,
        "meta_rev_at_epoch": 511,
        "meta_bstar": 0,
        "meta_mean_motion_dot": 1.27e-06,
        "meta_mean_motion_ddot": 0,
        "tle_line1": "1 28912U 05049B   25344.85939461  .00000127  00000+0  00000+0 0  9991",
        "tle_line2": "2 28912   8.9357  55.9949 0003704 190.2808 188.5842  1.00275463  5110"
      },
      "geometry": {
        "type": "Point",
        "coordinates": [
          -70.91564039817607,
          -7.182118491104449
        ]
      }
    },
    {
      "type": "Feature",
      "properties": {
        "norad_id": 29522,
        "name": "DMSP 5D-3 F17 (USA 191)",
        "group": "weather",
        "lat": 43.8443869923175,
        "lon": 179.3654421936233,
        "alt_km": 839.261162219871,
        "timestamp": "2025-12-11T10:53:15.525956+00:00",
        "meta_object_name": "DMSP 5D-3 F17 (USA 191)",
        "meta_object_id": "2006-050A",
        "meta_epoch": "2025-12-11T05:09:26.559072",
        "meta_mean_motion": 14.14918401,
        "meta_eccentricity": 0.0009343,
        "meta_inclination": 98.7394,
        "meta_ra_of_asc_node": 350.6357,
        "meta_arg_of_pericenter": 229.6304,
        "meta_mean_anomaly": 130.4055,
        "meta_ephemeris_type": 0,
        "meta_classification_type": "U",
        "meta_norad_cat_id": 29522,
        "meta_element_set_no": 999,
        "meta_rev_at_epoch": 98583,
        "meta_bstar": 0.00015507,
        "meta_mean_motion_dot": 2.56e-06,
        "meta_mean_motion_ddot": 0,
        "tle_line1": "1 29522U 06050A   25345.21489073  .00000256  00000+0  15507-3 0  9997",
        "tle_line2": "2 29522  98.7394 350.6357 0009343 229.6304 130.4055 14.14918401985830"
      },
      "geometry": {
        "type": "Point",
        "coordinates": [
          179.3654421936233,
          43.8443869923175
        ]
      }
    },
    {
      "type": "Feature",
      "properties": {
        "norad_id": 32958,
        "name": "FENGYUN 3A",
        "group": "weather",
        "lat": -8.257519581800336,
        "lon": 103.7386527511359,
        "alt_km": 834.3468575439229,
        "timestamp": "2025-12-11T10:53:15.525970+00:00",
        "meta_object_name": "FENGYUN 3A",
        "meta_object_id": "2008-026A",
        "meta_epoch": "2025-12-10T13:42:10.579392",
        "meta_mean_motion": 14.19513473,
        "meta_eccentricity": 0.0007991,
        "meta_inclination": 98.6695,
        "meta_ra_of_asc_node": 284.1435,
        "meta_arg_of_pericenter": 317.2846,
        "meta_mean_anomaly": 42.7709,
        "meta_ephemeris_type": 0,
        "meta_classification_type": "U",
        "meta_norad_cat_id": 32958,
        "meta_element_set_no": 999,
        "meta_rev_at_epoch": 90864,
        "meta_bstar": 0.00012071,
        "meta_mean_motion_dot": 2.11e-06,
        "meta_mean_motion_ddot": 0,
        "tle_line1": "1 32958U 08026A   25344.57095578  .00000211  00000+0  12071-3 0  9994",
        "tle_line2": "2 32958  98.6695 284.1435 0007991 317.2846  42.7709 14.19513473908640"
      },
      "geometry": {
        "type": "Point",
        "coordinates": [
          103.7386527511359,
          -8.257519581800336
        ]
      }
    },
    {
      "type": "Feature",
      "properties": {
        "norad_id": 35491,
        "name": "GOES 14",
        "group": "weather",
        "lat": 0.9230236501428164,
        "lon": 134.98829764673494,
        "alt_km": 35813.20892550761,
        "timestamp": "2025-12-11T10:53:15.525985+00:00",
        "meta_object_name": "GOES 14",
        "meta_object_id": "2009-033A",
        "meta_epoch": "2025-12-10T16:27:03.557376",
        "meta_mean_motion": 1.00162418,
        "meta_eccentricity": 0.0003441,
        "meta_inclination": 1.1989,
        "meta_ra_of_asc_node": 85.3725,
        "meta_arg_of_pericenter": 333.0778,
        "meta_mean_anomaly": 159.5038,
        "meta_ephemeris_type": 0,
        "meta_classification_type": "U",
        "meta_norad_cat_id": 35491,
        "meta_element_set_no": 999,
        "meta_rev_at_epoch": 470,
        "meta_bstar": 0,
        "meta_mean_motion_dot": -4.6e-07,
        "meta_mean_motion_ddot": 0,
        "tle_line1": "1 35491U 09033A   25344.68545784 -.00000046  00000+0  00000+0 0  9991",
        "tle_line2": "2 35491   1.1989  85.3725 0003441 333.0778 159.5038  1.00162418  4700"
      },
      "geometry": {
        "type": "Point",
        "coordinates": [
          134.98829764673494,
          0.9230236501428164
        ]
      }
    },
    {
      "type": "Feature",
      "properties": {
        "norad_id": 35951,
        "name": "DMSP 5D-3 F18 (USA 210)",
        "group": "weather",
        "lat": 3.332391120878221,
        "lon": -38.66096429572547,
        "alt_km": 841.5316044866277,
        "timestamp": "2025-12-11T10:53:15.525998+00:00",
        "meta_object_name": "DMSP 5D-3 F18 (USA 210)",
        "meta_object_id": "2009-057A",
        "meta_epoch": "2025-12-11T04:04:56.692704",
        "meta_mean_motion": 14.14767673,
        "meta_eccentricity": 0.0012078,
        "meta_inclination": 98.8833,
        "meta_ra_of_asc_node": 321.5787,
        "meta_arg_of_pericenter": 66.8661,
        "meta_mean_anomaly": 293.3783,
        "meta_ephemeris_type": 0,
        "meta_classification_type": "U",
        "meta_norad_cat_id": 35951,
        "meta_element_set_no": 999,
        "meta_rev_at_epoch": 83300,
        "meta_bstar": 0.00022729,
        "meta_mean_motion_dot": 3.94e-06,
        "meta_mean_motion_ddot": 0,
        "tle_line1": "1 35951U 09057A   25345.17010061  .00000394  00000+0  22729-3 0  9999",
        "tle_line2": "2 35951  98.8833 321.5787 0012078  66.8661 293.3783 14.14767673833003"
      },
      "geometry": {
        "type": "Point",
        "coordinates": [
          -38.66096429572547,
          3.332391120878221
        ]
      }
    },
    {
      "type": "Feature",
      "properties": {
        "norad_id": 36411,
        "name": "EWS-G2 (GOES 15)",
        "group": "weather",
        "lat": -0.5225118562725025,
        "lon": -54.81208936992757,
        "alt_km": 35769.321237862816,
        "timestamp": "2025-12-11T10:53:15.526011+00:00",
        "meta_object_name": "EWS-G2 (GOES 15)",
        "meta_object_id": "2010-008A",
        "meta_epoch": "2025-12-11T03:31:49.630944",
        "meta_mean_motion": 1.00269363,
        "meta_eccentricity": 0.0005831,
        "meta_inclination": 0.8103,
        "meta_ra_of_asc_node": 86.0602,
        "meta_arg_of_pericenter": 174.2299,
        "meta_mean_anomaly": 294.1987,
        "meta_ephemeris_type": 0,
        "meta_classification_type": "U",
        "meta_norad_cat_id": 36411,
        "meta_element_set_no": 999,
        "meta_rev_at_epoch": 5775,
        "meta_bstar": 0,
        "meta_mean_motion_dot": 4.4e-07,
        "meta_mean_motion_ddot": 0,
        "tle_line1": "1 36411U 10008A   25345.14710221  .00000044  00000+0  00000+0 0  9997",
        "tle_line2": "2 36411   0.8103  86.0602 0005831 174.2299 294.1987  1.00269363 57756"
      },
      "geometry": {
        "type": "Point",
        "coordinates": [
          -54.81208936992757,
          -0.5225118562725025
        ]
      }
    }
  ]
}